0 COSMOS 2251 DEB
1 34276U 93036LW  13281.73369918  .00001049  00000-0  33102-3 0  1936
2 34276 074.0270 113.9494 0030004 267.1647 222.8965 14.41275399243014
0 COSMOS 2251 DEB
1 34276U 93036LW  13282.98166215  .00001179  00000-0  37098-3 0  1942
2 34276 074.0270 111.6373 0029995 264.6338 217.9886 14.41281281243194
0 COSMOS 2251 DEB
1 34276U 93036LW  13285.68925228  .00001310  00000-0  41108-3 0  1965
2 34276 074.0271 106.6211 0029979 259.2018 226.4096 14.41287872243580
0 COSMOS 2251 DEB
1 34276U 93036LW  13286.94424870  .00001514  00000-0  47394-3 0  1972
2 34276 074.0272 104.2959 0029960 256.6925 258.0139 14.41290979243763
0 COSMOS 2251 DEB
1 34276U 93036LW  13288.18695722  .00002138  00000-0  66581-3 0  1989
2 34276 074.0275 101.9936 0029956 254.1805 225.9045 14.41297860243945
0 COSMOS 2251 DEB
1 34276U 93036LW  13289.28654574  .00001663  00000-0  51963-3 0  1992
2 34276 074.0278 099.9564 0030032 251.9805 171.2050 14.41302218244105
0 COSMOS 2251 DEB
1 34276U 93036LW  13290.46014942  .00001831  00000-0  57123-3 0  2007
2 34276 074.0279 097.7821 0029990 249.6407 140.5496 14.41306361244275
0 COSMOS 2251 DEB
1 34276U 93036LW  13291.50605532  .00001837  00000-0  57297-3 0  2013
2 34276 074.0283 095.8443 0029864 247.5072 167.3893 14.41309504244421
0 COSMOS 2251 DEB
1 34276U 93036LW  13292.83801302  .00002212  00000-0  68826-3 0  2022
2 34276 074.0284 093.3767 0029832 244.8509 238.4152 14.41313294244614
0 COSMOS 2251 DEB
1 34276U 93036LW  13293.88659135  .00002307  00000-0  71725-3 0  2031
2 34276 074.0284 091.4340 0029874 242.7882 279.0745 14.41318323244760
0 COSMOS 2251 DEB
1 34276U 93036LW  13295.18417072  .00002495  00000-0  77502-3 0  2046
2 34276 074.0283 089.0299 0029855 240.1930 171.7713 14.41323877244954
